{"type": "FeatureCollection", "features": [ {"type": "Feature", "properties": {"norad_id": 67228, "name": "QPS-SAR-15", "group": "last-30-days", "lat": -30.47105392895421, "lon": 60.770540584921804, "alt_km": 571.8609457875073, "timestamp": "2025-12-25T07:00:32.768353+00:00", "meta": {"OBJECT_NAME": "QPS-SAR-15", "OBJECT_ID": "2025-307A", "EPOCH": "2025-12-24T15:12:58.225536", "MEAN_MOTION": 14.97075685, "ECCENTRICITY": 0.00101278, "INCLINATION": 42.0067, "RA_OF_ASC_NODE": 105.1986, "ARG_OF_PERICENTER": 288.6149, "MEAN_ANOMALY": 71.3576, "EPHEMERIS_TYPE": 0, "CLASSIFICATION_TYPE": "U", "NORAD_CAT_ID": 67228, "ELEMENT_SET_NO": 999, "REV_AT_EPOCH": 50, "BSTAR": 0.00051259096, "MEAN_MOTION_DOT": 5.837e-05, "MEAN_MOTION_DDOT": 0}, "tle": {"line1": "1 67228U 25307A   25358.63400724  .00005837  00000+0  51259-3 0  9998", "line2": "2 67228  42.0067 105.1986 0010127 288.6149  71.3576 14.97075685   501"}}, "geometry": {"type": "Point", "coordinates": [60.770540584921804, -30.47105392895421]}}, {"type": "Feature", "properties": {"norad_id": 67229, "name": "ELECTRON KICK STAGE R/B", "group": "last-30-days", "lat": 35.18811336431955, "lon": 151.16395899649095, "alt_km": 540.2531745817523, "timestamp": "2025-12-25T07:00:32.768370+00:00", "meta": {"OBJECT_NAME": "ELECTRON KICK STAGE R/B", "OBJECT_ID": "2025-307B", "EPOCH": "2025-12-24T13:48:14.301792", "MEAN_MOTION": 15.55758318, "ECCENTRICITY": 0.02455668, "INCLINATION": 42.0011, "RA_OF_ASC_NODE": 103.8717, "ARG_OF_PERICENTER": 260.032, "MEAN_ANOMALY": 97.2731, "EPHEMERIS_TYPE": 0, "CLASSIFICATION_TYPE": "U", "NORAD_CAT_ID": 67229, "ELEMENT_SET_NO": 999, "REV_AT_EPOCH": 51, "BSTAR": 0.0014822418, "MEAN_MOTION_DOT": 0.00454501, "MEAN_MOTION_DDOT": 6.1387959e-05}, "tle": {"line1": "1 67229U 25307B   25358.57516553  .00454501  61388-4  14822-2 0  9991", "line2": "2 67229  42.0011 103.8717 0245566 260.0320  97.2731 15.55758318   517"}}, "geometry": {"type": "Point", "coordinates": [151.16395899649095, 35.18811336431955]}}, {"type": "Feature", "properties": {"norad_id": 67230, "name": "ELECTRON R/B", "group": "last-30-days", "lat": 38.976959553015746, "lon": 163.6672723021178, "alt_km": 513.9310310203573, "timestamp": "2025-12-25T07:00:32.768381+00:00", "meta": {"OBJECT_NAME": "ELECTRON R/B", "OBJECT_ID": "2025-307C", "EPOCH": "2025-12-21T08:41:59.140320", "MEAN_MOTION": 15.55087105, "ECCENTRICITY": 0.02614087, "INCLINATION": 41.982, "RA_OF_ASC_NODE": 123.1026, "ARG_OF_PERICENTER": 268.141, "MEAN_ANOMALY": 88.9482, "EPHEMERIS_TYPE": 0, "CLASSIFICATION_TYPE": "U", "NORAD_CAT_ID": 67230, "ELEMENT_SET_NO": 999, "REV_AT_EPOCH": 1, "BSTAR": 0.00020247584, "MEAN_MOTION_DOT": 0.00071881, "MEAN_MOTION_DDOT": 8.106877e-06}, "tle": {"line1": "1 67230U 25307C   25355.36249005  .00071881  81069-5  20248-3 0  9997", "line2": "2 67230  41.9820 123.1026 0261408 268.1410  88.9482 15.55087105    19"}}, "geometry": {"type": "Point", "coordinates": [163.6672723021178, 38.976959553015746]}}, {"type": "Feature", "properties": {"norad_id": 67231, "name": "2025-308A", "group": "last-30-days", "lat": 30.00705334937928, "lon": 69.46115711628725, "alt_km": 215.43768795786855, "timestamp": "2025-12-25T07:00:32.768391+00:00", "meta": {"OBJECT_NAME": "2025-308A", "OBJECT_ID": "2025-308A", "EPOCH": "2025-12-24T20:31:17.719680", "MEAN_MOTION": 16.22335611, "ECCENTRICITY": 0.00249687, "INCLINATION": 69.7081, "RA_OF_ASC_NODE": 58.4673, "ARG_OF_PERICENTER": 151.3238, "MEAN_ANOMALY": 208.9362, "EPHEMERIS_TYPE": 0, "CLASSIFICATION_TYPE": "U", "NORAD_CAT_ID": 67231, "ELEMENT_SET_NO": 999, "REV_AT_EPOCH": 29, "BSTAR": 0.000554093, "MEAN_MOTION_DOT": 0.01368544, "MEAN_MOTION_DDOT": 4.358674e-06}, "tle": {"line1": "1 67231U 25308A   25358.85506620  .01368544  43587-5  55409-3 0  9991", "line2": "2 67231  69.7081  58.4673 0024968 151.3238 208.9362 16.22335611   298"}}, "geometry": {"type": "Point", "coordinates": [69.46115711628725, 30.00705334937928]}}]}